[{"OBJECT_ID":"2009-050A","OBJECT_NAME":"NIMIQ 5","NORAD_CAT_ID":"35873","OBJECT_TYPE":"PAYLOAD","PERIOD":"1436.101","INCLINATION":"0.0533","APOGEE":"35794.761","PERIGEE":"35778.603","ECCENTRICITY":"0.0001916","MEAN_MOTION":"1.00271479","TLE_LINE1":"1 35873U 09050A   16238.29841834 -.00000283  00000-0  00000+0 0  9992","TLE_LINE2":"2 35873   0.0533 281.2291 0001916 235.3819 212.0984  1.00271479 25433","LAUNCH_DATE":"2009-09-17","LAUNCH_SITE":"TYURATAM MISSILE AND SPACE COMPLEX","OWNER":"CANADA","ORBIT_TYPE":"Geosynchronous","OPERATIONAL_STATUS":"Operational","satInfo":{"lng":-90.10990112441486,"lat":0.6431193572556129,"elevation":-7.9420742205447805,"azimuth":45.10990112441483,"range":42585.80252015349,"height":35801.8482531862,"velocity":3.074077898239188},"x":-300,"y":0,"dx":-0.005896497320701421,"dy":3.074072243094168},{"OBJECT_ID":"2009-054A","OBJECT_NAME":"AMAZONAS 2","NORAD_CAT_ID":"35942","OBJECT_TYPE":"PAYLOAD","PERIOD":"1436.121","INCLINATION":"0.021","APOGEE":"35810.975","PERIGEE":"35763.168","ECCENTRICITY":"0.0005669","MEAN_MOTION":"1.00270091","TLE_LINE1":"1 35942U 09054A   16238.77812355 -.00000310  00000-0  00000+0 0  9993","TLE_LINE2":"2 35942   0.0210 163.7689 0005669 359.1854  30.6097  1.00270091 25269","LAUNCH_DATE":"2009-09-30","LAUNCH_SITE":"FRENCH GUIANA","OWNER":"SPAIN","ORBIT_TYPE":"Geosynchronous","OPERATIONAL_STATUS":"Operational","satInfo":{"lng":-71.78001601098894,"lat":0.3826656809344362,"elevation":-8.195396009796415,"azimuth":26.780016010988945,"range":42621.3767518639,"height":35808.91692462088,"velocity":3.0735273285744036},"x":-285,"y":-92,"dx":0.9609882236656816,"dy":2.919430059698226},{"OBJECT_ID":"2009-054B","OBJECT_NAME":"COMSATBW-1","NORAD_CAT_ID":"35943","OBJECT_TYPE":"PAYLOAD","PERIOD":"1436.087","INCLINATION":"0.056","APOGEE":"35797.183","PERIGEE":"35775.654","ECCENTRICITY":"0.0002553","MEAN_MOTION":"1.0027242","TLE_LINE1":"1 35943U 09054B   16238.86239844 -.00000003 +00000-0 +00000-0 0  9990","TLE_LINE2":"2 35943 000.0560 099.6855 0002553 080.8352 167.4652 01.00272420025387","LAUNCH_DATE":"2009-09-30","LAUNCH_SITE":"FRENCH GUIANA","OWNER":"GERMANY","ORBIT_TYPE":"Geosynchronous","OPERATIONAL_STATUS":"Operational","satInfo":{"lng":87.32542889948482,"lat":0.6365101649529316,"elevation":-7.951012900792157,"azimuth":227.67457110051518,"range":42574.35897410708,"height":35789.541183515146,"velocity":3.074497878648633},"x":300,"y":-14,"dx":0.14346566577895897,"dy":-3.07114877668887},{"OBJECT_ID":"2009-058A","OBJECT_NAME":"NSS 12","NORAD_CAT_ID":"36032","OBJECT_TYPE":"PAYLOAD","PERIOD":"1436.102","INCLINATION":"0.0313","APOGEE":"35798.099","PERIGEE":"35775.313","ECCENTRICITY":"0.0002702","MEAN_MOTION":"1.00271395","TLE_LINE1":"1 36032U 09058A   16238.91228599  .00000044  00000-0  00000+0 0  9998","TLE_LINE2":"2 36032   0.0313 284.2319 0002702 228.4931 207.2825  1.00271395 25025","LAUNCH_DATE":"2009-10-29","LAUNCH_SITE":"FRENCH GUIANA","OWNER":"SOCIÉTÉ EUROPÉENNE DES SATELLITES","ORBIT_TYPE":"Geosynchronous","OPERATIONAL_STATUS":"Operational","satInfo":{"lng":93.07980684392861,"lat":-0.6497329303939786,"elevation":-9.208990049305369,"azimuth":221.9201931560714,"range":42707.35276847087,"height":35781.47580027616,"velocity":3.0750226819080466},"x":299,"y":15,"dx":-0.16521140016694774,"dy":-3.0705813272902955},{"OBJECT_ID":"2009-058B","OBJECT_NAME":"THOR 6","NORAD_CAT_ID":"36033","OBJECT_TYPE":"PAYLOAD","PERIOD":"1436.099","INCLINATION":"0.0228","APOGEE":"35793.901","PERIGEE":"35779.396","ECCENTRICITY":"0.000172","MEAN_MOTION":"1.002716","TLE_LINE1":"1 36033U 09058B   16239.13452203 -.00000038  00000-0  00000+0 0  9999","TLE_LINE2":"2 36033   0.0228 209.8796 0001720 314.8671 217.6354  1.00271600 25046","LAUNCH_DATE":"2009-10-29","LAUNCH_SITE":"FRENCH GUIANA","OWNER":"NORWAY","ORBIT_TYPE":"Geosynchronous","OPERATIONAL_STATUS":"Operational","satInfo":{"lng":19.7490056404989,"lat":-0.3206041611202512,"elevation":-8.882375261429313,"azimuth":295.25099435950114,"range":42698.6303909074,"height":35809.085985351776,"velocity":3.0736401744166915},"x":101,"y":-276,"dx":2.892854436595103,"dy":-1.038584195171628},{"OBJECT_ID":"2009-064A","OBJECT_NAME":"INTELSAT 14","NORAD_CAT_ID":"36097","OBJECT_TYPE":"PAYLOAD","PERIOD":"1436.079","INCLINATION":"0.0145","APOGEE":"35795.616","PERIGEE":"35776.887","ECCENTRICITY":"0.0002221","MEAN_MOTION":"1.00273015","TLE_LINE1":"1 36097U 09064A   16237.20026821 -.00000297 +00000-0 +00000-0 0  9993","TLE_LINE2":"2 36097 000.0145 113.7955 0002221 052.1829 194.0243 01.00273015024796","LAUNCH_DATE":"2009-11-23","LAUNCH_SITE":"AIR FORCE EASTERN TEST RANGE","OWNER":"INTERNATIONAL TELECOMMUNICATIONS SATELLITE ORGANIZATION (INTELSAT)","ORBIT_TYPE":"Geosynchronous","OPERATIONAL_STATUS":"Operational","satInfo":{"lng":-45.06900575998412,"lat":-1.660630821637414,"elevation":-10.19123790965532,"azimuth":0.06900575998410655,"range":42829.40088221129,"height":35793.22430728233,"velocity":3.074197384736592},"x":-213,"y":-207,"dx":2.1711661823254613,"dy":2.1764022994491588},{"OBJECT_ID":"2009-065A","OBJECT_NAME":"EUTE 36B (EUTE W7)","NORAD_CAT_ID":"36101","OBJECT_TYPE":"PAYLOAD","PERIOD":"1436.113","INCLINATION":"0.0672","APOGEE":"35803.472","PERIGEE":"35770.381","ECCENTRICITY":"0.0003924","MEAN_MOTION":"1.00270607","TLE_LINE1":"1 36101U 09065A   16238.79146571  .00000128  00000-0  00000+0 0  9991","TLE_LINE2":"2 36101   0.0672 356.9893 0003924 166.8562 131.4806  1.00270607 24881","LAUNCH_DATE":"2009-11-24","LAUNCH_SITE":"TYURATAM MISSILE AND SPACE COMPLEX","OWNER":"EUROPEAN TELECOMMUNICATIONS SATELLITE ORGANIZATION (EUTELSAT)","ORBIT_TYPE":"Geosynchronous","OPERATIONAL_STATUS":"Operational","satInfo":{"lng":92.78421801159135,"lat":0.16771181789628034,"elevation":-8.414610620432228,"azimuth":222.21578198840868,"range":42600.0697020131,"height":35763.52539732595,"velocity":3.075627008632642},"x":299,"y":14,"dx":-0.14939750280638656,"dy":-3.0719964001257862},{"OBJECT_ID":"2009-067A","OBJECT_NAME":"INTELSAT 15","NORAD_CAT_ID":"36106","OBJECT_TYPE":"PAYLOAD","PERIOD":"1436.105","INCLINATION":"0.06","APOGEE":"35795.803","PERIGEE":"35777.731","ECCENTRICITY":"0.0002143","MEAN_MOTION":"1.00271177","TLE_LINE1":"1 36106U 09067A   16238.86297331 -.00000213 +00000-0 +00000-0 0  9994","TLE_LINE2":"2 36106 000.0600 285.3481 0002143 236.4673 208.5442 01.00271177005383","LAUNCH_DATE":"2009-11-30","LAUNCH_SITE":"TYURATAM MISSILE AND SPACE COMPLEX","OWNER":"INTERNATIONAL TELECOMMUNICATIONS SATELLITE ORGANIZATION (INTELSAT)","ORBIT_TYPE":"Geosynchronous","OPERATIONAL_STATUS":"Operational","satInfo":{"lng":65.3683579683478,"lat":0.4654395682238173,"elevation":-8.118797187411953,"azimuth":249.63164203165218,"range":42590.904431669915,"height":35787.28476238939,"velocity":3.0745820049713553},"x":273,"y":-122,"dx":1.2814330854475244,"dy":-2.7948137241709183},{"OBJECT_ID":"2009-075A","OBJECT_NAME":"DIRECTV 12","NORAD_CAT_ID":"36131","OBJECT_TYPE":"PAYLOAD","PERIOD":"1436.096","INCLINATION":"0.0409","APOGEE":"35787.318","PERIGEE":"35785.859","ECCENTRICITY":"1.73e-05","MEAN_MOTION":"1.00271813","TLE_LINE1":"1 36131U 09075A   16238.38191622 -.00000129  00000-0  00000+0 0  9999","TLE_LINE2":"2 36131   0.0409 293.8366 0000173 238.7565 196.1552  1.00271813 24461","LAUNCH_DATE":"2009-12-29","LAUNCH_SITE":"TYURATAM MISSILE AND SPACE COMPLEX","OWNER":"UNITED STATES OF AMERICA","ORBIT_TYPE":"Geosynchronous","OPERATIONAL_STATUS":"Operational","satInfo":{"lng":-105.06445609287631,"lat":-0.4113608365369553,"elevation":-8.975371970016464,"azimuth":60.064456092876284,"range":42686.659179184346,"height":35786.93063340079,"velocity":3.0746909699135188},"x":-290,"y":76,"dx":-0.7991291543992085,"dy":2.9690262974680675},{"OBJECT_ID":"2010-001A","OBJECT_NAME":"BEIDOU G1","NORAD_CAT_ID":"36287","OBJECT_TYPE":"PAYLOAD","PERIOD":"1436.090","INCLINATION":"1.5246","APOGEE":"35805.425","PERIGEE":"35767.502","ECCENTRICITY":"0.0004497","MEAN_MOTION":"1.0027226","TLE_LINE1":"1 36287U 10001A   16238.85035899 -.00000310 +00000-0 +10000-3 0  9994","TLE_LINE2":"2 36287 001.5246 002.0197 0004497 212.4764 206.2152 01.00272260024256","LAUNCH_DATE":"2010-01-16","LAUNCH_SITE":"Xichang Space Center, China","OWNER":"PEOPLES REPUBLIC OF CHINA","ORBIT_TYPE":"Geosynchronous","OPERATIONAL_STATUS":"Operational","satInfo":{"lng":121.87318586129334,"lat":0.7631376883537712,"elevation":-7.830918843623779,"azimuth":193.1268141387067,"range":42541.718399488054,"height":35770.5916812487,"velocity":3.075136746370131},"x":255,"y":154,"dx":-1.623798166933464,"dy":-2.61146424864278},{"OBJECT_ID":"2010-002A","OBJECT_NAME":"RADUGA 1M-2","NORAD_CAT_ID":"36358","OBJECT_TYPE":"PAYLOAD","PERIOD":"1436.055","INCLINATION":"0.038","APOGEE":"35791.936","PERIGEE":"35779.650","ECCENTRICITY":"0.0001457","MEAN_MOTION":"1.00274651","TLE_LINE1":"1 36358U 10002A   16238.72552757 -.00000212  00000-0  00000+0 0  9993","TLE_LINE2":"2 36358   0.0380 261.9295 0001457 339.8040  78.8721  1.00274651 24089","LAUNCH_DATE":"2010-01-28","LAUNCH_SITE":"TYURATAM MISSILE AND SPACE COMPLEX","OWNER":"COMMONWEALTH OF INDEPENDENT STATES","ORBIT_TYPE":"Geosynchronous","OPERATIONAL_STATUS":"Operational","satInfo":{"lng":65.2798882225138,"lat":-0.44207633682208375,"elevation":-9.004297156342188,"azimuth":249.72011177748618,"range":42695.193964862345,"height":35792.16119864455,"velocity":3.0742607701194995},"x":272,"y":-123,"dx":1.2856126595502586,"dy":-2.792539949991736}]